[Satellite]
VERSION=1.1
NAME=SL-14 R/B
NICKNAME=SL-14 R/B
TLE1=1 18153U 87055B   17186.22110264  .00000056  00000-0  39398-5 0  9992
TLE2=2 18153  82.5012  87.5614 0022351  27.8712 332.3695 14.83181222621034
